0 SCOUT X-4 DEB
1 00724U 63053E   13282.62836452  .00007374  00000-0  21652-2 0  5087
2 00724 078.6016 342.9374 0458862 079.2537 285.9915 13.96545711378864
0 SCOUT X-4 DEB
1 00724U 63053E   13283.48806214  .00013535  00000-0  39915-2 0  5105
2 00724 078.6027 341.8718 0458143 077.0026 288.2333 13.96543796378981
0 SCOUT X-4 DEB
1 00724U 63053E   13284.13280369  .00007207  00000-0  21165-2 0  5090
2 00724 078.6020 341.0705 0458701 075.4431 289.7126 13.96563936379079
0 SCOUT X-4 DEB
1 00724U 63053E   13286.13869038  .00005035  00000-0  14785-2 0  5118
2 00724 078.6021 338.5814 0458549 070.3555 294.6478 13.96582175379355
0 SCOUT X-4 DEB
1 00724U 63053E   13287.14162217  .00004726  00000-0  13880-2 0  5127
2 00724 078.6018 337.3368 0458480 067.8135 297.0998 13.96585441379499
0 SCOUT X-4 DEB
1 00724U 63053E   13288.14454724  .00009192  00000-0  27006-2 0  5133
2 00724 078.6015 336.0926 0458402 065.2715 299.5427 13.96599221379633
0 SCOUT X-4 DEB
1 00724U 63053E   13289.14745540  .00010029  00000-0  29476-2 0  5148
2 00724 078.6012 334.8475 0458229 062.7146 301.9900 13.96616717379771
0 SCOUT X-4 DEB
1 00724U 63053E   13290.43689476  .00010089  00000-0  29649-2 0  5156
2 00724 078.6010 333.2472 0458157 059.4482 305.1054 13.96631307379953
0 SCOUT X-4 DEB
1 00724U 63053E   13291.43977916  .00007733  00000-0  22730-2 0  5163
2 00724 078.6008 332.0028 0458043 056.9039 307.5221 13.96646025380090
0 SCOUT X-4 DEB
1 00724U 63053E   13292.80081944  .00006884  00000-0  20231-2 0  5173
2 00724 078.6004 330.3132 0457970 053.4565 310.7847 13.96663359380287
0 SCOUT X-4 DEB
1 00724U 63053E   13294.16184214  .00007427  00000-0  21825-2 0  5183
2 00724 078.5999 328.6232 0457934 050.0101 314.0327 13.96675336380478
0 SCOUT X-4 DEB
1 00724U 63053E   13295.80937422  .00009536  00000-0  28029-2 0  5199
2 00724 078.6000 326.5782 0457787 045.8174 317.9655 13.96691305380703
